[{"OBJECT_NAME":"GENMAT-1","OBJECT_ID":"2023-174W","EPOCH":"2026-03-09T18:03:23.351040","MEAN_MOTION":15.32594666,"ECCENTRICITY":0.00074416,"INCLINATION":97.3728,"RA_OF_ASC_NODE":146.8236,"ARG_OF_PERICENTER":169.2515,"MEAN_ANOMALY":190.8888,"EPHEMERIS_TYPE":0,"CLASSIFICATION_TYPE":"U","NORAD_CAT_ID":58276,"ELEMENT_SET_NO":999,"REV_AT_EPOCH":12973,"BSTAR":0.00042157222,"MEAN_MOTION_DOT":0.0001321,"MEAN_MOTION_DDOT":0},{"OBJECT_NAME":"STARLINK-34762","OBJECT_ID":"2025-195R","EPOCH":"2026-03-09T22:53:59.162208","MEAN_MOTION":15.30202082,"ECCENTRICITY":0.0001068,"INCLINATION":53.1565,"RA_OF_ASC_NODE":256.9897,"ARG_OF_PERICENTER":71.9033,"MEAN_ANOMALY":288.2084,"EPHEMERIS_TYPE":0,"CLASSIFICATION_TYPE":"U","NORAD_CAT_ID":65473,"ELEMENT_SET_NO":999,"REV_AT_EPOCH":3001,"BSTAR":0.00097008167,"MEAN_MOTION_DOT":0.00028484,"MEAN_MOTION_DDOT":0}]
